NORAD_CAT_ID,OBJECT_NAME,OBJECT_TYPE,EPOCH,MEAN_MOTION,ECCENTRICITY,INCLINATION,RA_OF_ASC_NODE,ARG_OF_PERICENTER,MEAN_ANOMALY,BSTAR,MEAN_MOTION_DOT,MEAN_MOTION_DDOT,TLE_LINE0,TLE_LINE1,TLE_LINE2,SEMIMAJOR_AXIS,PERIOD,APOGEE,PERIGEE,DECAYED
52336.0,STARLINK-3823,PAYLOAD,2023-04-20 09:43:58,15.10475712,0.0001247,53.2162,261.8031,89.8967,270.2169,0.00013219,1.909e-05,0.0,0 STARLINK-3823,1 52336U 22045F   23110.40554311  .00001909  00000-0  13219-3 0  9990,2 52336  53.2162 261.8031 0001247  89.8967 270.2169 15.10475712 56485,6912.885,95.334,535.612,533.888,0.0
52336.0,STARLINK-3823,PAYLOAD,2023-04-20 16:05:06,15.10475786,0.0001487,53.2156,260.6098,84.565,275.5513,3.7636e-05,3.34e-06,0.0,0 STARLINK-3823,1 52336U 22045F   23110.67021653  .00000334  00000-0  37636-4 0  9998,2 52336  53.2156 260.6098 0001487  84.5650 275.5513 15.10475786 56522,6912.885,95.334,535.778,533.722,0.0
52336.0,STARLINK-3823,PAYLOAD,2023-04-21 03:12:04,15.10484219,0.0001241,53.2151,258.5242,82.72,277.3934,0.00022497,3.455e-05,0.0,0 STARLINK-3823,1 52336U 22045F   23111.13339046  .00003455  00000-0  22497-3 0  9993,2 52336  53.2151 258.5242 0001241  82.7200 277.3934 15.10484219 56598,6912.859,95.334,535.582,533.866,0.0
52336.0,STARLINK-3823,PAYLOAD,2023-04-21 20:40:26,15.10199652,0.0001257,53.2161,255.2485,111.5901,248.5226,-0.0035382,-0.00058273,0.0,0 STARLINK-3823,1 52336U 22045F   23111.86141457 -.00058273  00000-0 -35382-2 0  9996,2 52336  53.2161 255.2485 0001257 111.5901 248.5226 15.10199652 56709,6913.728,95.352,536.462,534.724,0.0
52336.0,STARLINK-3823,PAYLOAD,2023-04-22 20:30:43,15.09390866,0.000154,53.2156,250.7853,92.6751,267.4418,-0.011707,-0.00184638,0.0,0 STARLINK-3823,1 52336U 22045F   23112.85467315 -.00184638  00000-0 -11707-1 0  9999,2 52336  53.2156 250.7853 0001540  92.6751 267.4418 15.09390866 56856,6916.197,95.403,539.127,536.997,0.0
52336.0,STARLINK-3823,PAYLOAD,2023-04-23 10:00:00,15.08840863,0.000152,53.216,248.2607,91.1344,84.1668,-2.6488e-05,-7.1e-06,0.0,0 STARLINK-3823,1 52336U 22045F   23113.41667824 -.00000710  00000-0 -26488-4 0  9992,2 52336  53.2160 248.2607 0001520  91.1344  84.1668 15.08840863 56936,6917.878,95.438,540.794,538.691,0.0
52336.0,STARLINK-3823,PAYLOAD,2023-04-23 14:00:01,15.08871986,0.0001423,53.2158,247.5136,83.7739,277.3115,-0.0045942,-0.0007273,0.0,0 STARLINK-3823,1 52336U 22045F   23113.58334491 -.00072730  00000-0 -45942-2 0  9996,2 52336  53.2158 247.5136 0001423  83.7739 277.3115 15.08871986  1303,6917.783,95.436,540.632,538.663,0.0
52336.0,STARLINK-3823,PAYLOAD,2023-04-23 22:00:00,15.08815731,0.000141,53.2156,246.0176,74.2827,298.4057,0.00081701,0.0001273,0.0,0 STARLINK-3823,1 52336U 22045F   23113.91667824  .00012730  00000-0  81701-3 0  9998,2 52336  53.2156 246.0176 0001410  74.2827 298.4057 15.08815731  1303,6917.955,95.439,540.795,538.844,0.0
52336.0,STARLINK-3823,PAYLOAD,2023-04-24 14:00:01,15.08878777,0.0001406,53.2159,243.0248,76.813,319.0367,-0.0050769,-0.00080272,0.0,0 STARLINK-3823,1 52336U 22045F   23114.58334491 -.00080272  00000-0 -50769-2 0  9990,2 52336  53.2159 243.0248 0001406  76.8130 319.0367 15.08878777 57116,6917.762,95.435,540.6,538.654,0.0
52336.0,STARLINK-3823,PAYLOAD,2023-04-24 22:00:01,15.08783702,0.0001266,53.2155,241.5283,87.6631,319.9861,0.0033869,0.00053944,0.0,0 STARLINK-3823,1 52336U 22045F   23114.91668981  .00053944  00000-0  33869-2 0  9997,2 52336  53.2155 241.5283 0001266  87.6631 319.9861 15.08783702 57160,6918.052,95.441,540.793,539.042,0.0
52336.0,STARLINK-3823,PAYLOAD,2023-04-25 06:00:00,15.08753096,0.0001292,53.2156,240.0308,106.9389,312.138,0.0052835,0.00084608,0.0,0 STARLINK-3823,1 52336U 22045F   23115.25001157  .00084608  00000-0  52835-2 0  9996,2 52336  53.2156 240.0308 0001292 106.9389 312.1380 15.08753096 57217,6918.146,95.443,540.905,539.117,0.0
52336.0,STARLINK-3823,PAYLOAD,2023-04-25 14:00:01,15.0881677,0.0001266,53.2155,238.5361,98.1327,332.5324,0.00024447,3.603e-05,0.0,0 STARLINK-3823,1 52336U 22045F   23115.58335648  .00003603  00000-0  24447-3 0  9992,2 52336  53.2155 238.5361 0001266  98.1327 332.5324 15.08816770  1304,6917.951,95.439,540.692,538.941,0.0
52336.0,STARLINK-3823,PAYLOAD,2023-04-26 11:56:44,15.08851231,0.0001378,53.2176,234.4336,92.3075,267.8075,5.4013e-05,5.72e-06,0.0,0 STARLINK-3823,1 52336U 22045F   23116.49773664  .00000572  00000-0  54013-4 0  9992,2 52336  53.2176 234.4336 0001378  92.3075 267.8075 15.08851231 57400,6917.846,95.437,540.664,538.758,0.0
52336.0,STARLINK-3823,PAYLOAD,2023-04-26 16:42:53,15.08854516,0.0001349,53.2159,233.5399,87.8322,272.2825,0.00020109,2.915e-05,0.0,0 STARLINK-3823,1 52336U 22045F   23116.69645545  .00002915  00000-0  20109-3 0  9991,2 52336  53.2159 233.5399 0001349  87.8322 272.2825 15.08854516 57437,6917.836,95.437,540.634,538.768,0.0
52336.0,STARLINK-3823,PAYLOAD,2023-04-27 00:39:50,15.08831533,0.0001323,53.2162,232.0517,95.8266,264.2877,0.00085187,0.00013292,0.0,0 STARLINK-3823,1 52336U 22045F   23117.02766594  .00013292  00000-0  85187-3 0  9994,2 52336  53.2162 232.0517 0001323  95.8266 264.2877 15.08831533 57482,6917.906,95.438,540.687,538.856,0.0
52336.0,STARLINK-3823,PAYLOAD,2023-04-27 11:47:31,15.08830535,0.0001521,53.2181,229.9715,96.9147,263.2018,0.00054909,8.459e-05,0.0,0 STARLINK-3823,1 52336U 22045F   23117.49134086  .00008459  00000-0  54909-3 0  9997,2 52336  53.2181 229.9715 0001521  96.9147 263.2018 15.08830535 57553,6917.909,95.438,540.827,538.722,0.0
52336.0,STARLINK-3823,PAYLOAD,2023-04-28 06:52:09,15.0884316,0.0001103,53.2154,226.4032,102.7706,257.3409,-0.00018334,-3.205e-05,0.0,0 STARLINK-3823,1 52336U 22045F   23118.28621613 -.00003205  00000-0 -18334-3 0  9990,2 52336  53.2154 226.4032 0001103 102.7706 257.3409 15.08843160 57679,6917.871,95.437,540.499,538.973,0.0
52336.0,STARLINK-3823,PAYLOAD,2023-04-28 13:13:41,15.08848945,0.0001259,53.2154,225.2147,96.4621,263.6515,-7.8347e-05,-1.535e-05,0.0,0 STARLINK-3823,1 52336U 22045F   23118.55117216 -.00001535  00000-0 -78347-4 0  9994,2 52336  53.2154 225.2147 0001259  96.4621 263.6515 15.08848945 57719,6917.853,95.437,540.589,538.847,0.0
52336.0,STARLINK-3823,PAYLOAD,2023-04-28 14:49:04,15.08856398,0.0001397,53.2152,224.9142,95.0662,265.049,-4.172e-05,-9.52e-06,0.0,0 STARLINK-3823,1 52336U 22045F   23118.61740760 -.00000952  00000-0 -41720-4 0  9994,2 52336  53.2152 224.9142 0001397  95.0662 265.0490 15.08856398 57721,6917.83,95.437,540.662,538.729,0.0
52336.0,STARLINK-3823,PAYLOAD,2023-04-29 00:21:23,15.08847421,0.0001477,53.2173,223.1324,79.4098,280.7061,-8.7165e-05,-1.675e-05,0.0,0 STARLINK-3823,1 52336U 22045F   23119.01485064 -.00001675  00000-0 -87165-4 0  9998,2 52336  53.2173 223.1324 0001477  79.4098 280.7061 15.08847421 57786,6917.858,95.437,540.744,538.701,0.0
52336.0,STARLINK-3823,PAYLOAD,2023-04-29 11:29:04,15.08844821,0.0001197,53.215,221.0505,80.5497,279.563,-5.5386e-05,-1.169e-05,0.0,0 STARLINK-3823,1 52336U 22045F   23119.47852952 -.00001169  00000-0 -55386-4 0  9990,2 52336  53.2150 221.0505 0001197  80.5497 279.5630 15.08844821 57851,6917.866,95.437,540.559,538.903,0.0
52336.0,STARLINK-3823,PAYLOAD,2023-04-30 12:55:15,15.08842224,0.0001172,53.215,216.2916,83.9324,276.1801,8.4137e-05,1.052e-05,0.0,0 STARLINK-3823,1 52336U 22045F   23120.53836987  .00001052  00000-0  84137-4 0  9994,2 52336  53.2150 216.2916 0001172  83.9324 276.1801 15.08842224 58019,6917.874,95.437,540.549,538.928,0.0
52336.0,STARLINK-3823,PAYLOAD,2023-05-01 11:10:39,15.08832637,0.0001008,53.2155,212.1298,78.1931,281.9174,2.2024e-05,6.3e-07,0.0,0 STARLINK-3823,1 52336U 22045F   23121.46573628  .00000063  00000-0  22024-4 0  9995,2 52336  53.2155 212.1298 0001008  78.1931 281.9174 15.08832637 58159,6917.903,95.438,540.465,539.071,0.0
52336.0,STARLINK-3823,PAYLOAD,2023-05-02 06:15:16,15.08845877,0.0001024,53.2153,208.5602,89.5817,270.5292,0.00010964,1.458e-05,0.0,0 STARLINK-3823,1 52336U 22045F   23122.26061091  .00001458  00000-0  10964-3 0  9998,2 52336  53.2153 208.5602 0001024  89.5817 270.5292 15.08845877 58270,6917.862,95.437,540.436,539.019,0.0
52336.0,STARLINK-3823,PAYLOAD,2023-05-02 12:36:49,15.08854204,0.0001078,53.2153,207.3709,84.2127,275.8988,0.00026717,3.968e-05,0.0,0 STARLINK-3823,1 52336U 22045F   23122.52556715  .00003968  00000-0  26717-3 0  9990,2 52336  53.2153 207.3709 0001078  84.2127 275.8988 15.08854204 58319,6917.837,95.437,540.448,538.956,0.0
52336.0,STARLINK-3823,PAYLOAD,2023-05-02 15:47:35,15.08860031,0.0001095,53.2154,206.7754,91.0144,269.0974,0.00056641,8.743e-05,0.0,0 STARLINK-3823,1 52336U 22045F   23122.65804686  .00008743  00000-0  56641-3 0  9992,2 52336  53.2154 206.7754 0001095  91.0144 269.0974 15.08860031 58334,6917.819,95.436,540.442,538.927,0.0
52336.0,STARLINK-3823,PAYLOAD,2023-05-03 06:06:04,15.08842491,0.0001525,53.215,204.0972,89.5465,270.5702,0.00013504,1.862e-05,0.0,0 STARLINK-3823,1 52336U 22045F   23123.25421301  .00001862  00000-0  13504-3 0  9994,2 52336  53.2150 204.0972 0001525  89.5465 270.5702 15.08842491 58425,6917.873,95.437,540.793,538.683,0.0
52336.0,STARLINK-3823,PAYLOAD,2023-05-03 10:52:13,15.0884273,0.0001028,53.2154,203.2068,46.8922,313.2156,0.00014813,2.071e-05,0.0,0 STARLINK-3823,1 52336U 22045F   23123.45293235  .00002071  00000-0  14813-3 0  9996,2 52336  53.2154 203.2068 0001028  46.8922 313.2156 15.08842730 58455,6917.872,95.437,540.448,539.026,0.0
52336.0,STARLINK-3823,PAYLOAD,2023-05-03 23:35:19,15.08826398,0.0001229,53.2155,200.828,114.4324,245.6797,-0.00010064,-1.889e-05,0.0,0 STARLINK-3823,1 52336U 22045F   23123.98286019 -.00001889  00000-0 -10064-3 0  9998,2 52336  53.2155 200.8280 0001229 114.4324 245.6797 15.08826398 58536,6917.922,95.438,540.637,538.937,0.0
52336.0,STARLINK-3823,PAYLOAD,2023-05-04 12:18:24,15.0883917,0.0001138,53.2152,198.4501,96.2396,263.8725,0.00082458,0.00012859,0.0,0 STARLINK-3823,1 52336U 22045F   23124.51278472  .00012859  00000-0  82458-3 0  9995,2 52336  53.2152 198.4501 0001138  96.2396 263.8725 15.08839170 58610,6917.883,95.438,540.535,538.961,0.0
